{
  "type": "FeatureCollection",
  "metadata": {
    "title": "India Administrative Boundaries - Healthcare Resilience Grid",
    "states_count": 28,
    "ut_count": 8,
    "total_entities": 36,
    "projection": "EPSG:4326",
    "source": "ArogyaGrid AI National GIS Service"
  },
  "features": [
    {
      "type": "Feature",
      "id": "JK",
      "properties": {
        "name": "Jammu and Kashmir",
        "state_code": "JK",
        "type": "Union Territory",
        "capital": "Srinagar / Jammu",
        "zone": "North",
        "centroid": [
          74.8,
          33.7
        ],
        "healthcare_resilience": 78.0,
        "medicine_availability": 84.5,
        "hospitals": 620,
        "phcs": 1820,
        "critical_stockouts": 11,
        "active_incidents": 3,
        "emergency_readiness": 80.5,
        "inventory_risk": "WATCH"
      },
      "geometry": {
        "type": "Polygon",
        "coordinates": [
          [
            [
              74.0,
              33.2
            ],
            [
              73.8,
              33.8
            ],
            [
              74.2,
              34.4
            ],
            [
              74.5,
              34.7
            ],
            [
              75.2,
              34.6
            ],
            [
              75.8,
              34.2
            ],
            [
              76.2,
              33.6
            ],
            [
              75.8,
              33.0
            ],
            [
              75.0,
              32.8
            ],
            [
              74.4,
              32.7
            ],
            [
              74.0,
              33.2
            ]
          ]
        ]
      }
    },
    {
      "type": "Feature",
      "id": "LA",
      "properties": {
        "name": "Ladakh",
        "state_code": "LA",
        "type": "Union Territory",
        "capital": "Leh",
        "zone": "North",
        "centroid": [
          77.5,
          34.5
        ],
        "healthcare_resilience": 81.5,
        "medicine_availability": 87.0,
        "hospitals": 120,
        "phcs": 340,
        "critical_stockouts": 4,
        "active_incidents": 1,
        "emergency_readiness": 84.0,
        "inventory_risk": "STABLE"
      },
      "geometry": {
        "type": "Polygon",
        "coordinates": [
          [
            [
              75.8,
              34.2
            ],
            [
              76.5,
              35.5
            ],
            [
              77.2,
              35.8
            ],
            [
              78.2,
              35.5
            ],
            [
              79.2,
              34.8
            ],
            [
              79.5,
              33.8
            ],
            [
              78.8,
              32.8
            ],
            [
              78.0,
              32.5
            ],
            [
              76.8,
              33.0
            ],
            [
              76.2,
              33.6
            ],
            [
              75.8,
              34.2
            ]
          ]
        ]
      }
    },
    {
      "type": "Feature",
      "id": "HP",
      "properties": {
        "name": "Himachal Pradesh",
        "state_code": "HP",
        "type": "State",
        "capital": "Shimla",
        "zone": "North",
        "centroid": [
          77.17,
          31.1
        ],
        "healthcare_resilience": 90.4,
        "medicine_availability": 95.2,
        "hospitals": 680,
        "phcs": 1920,
        "critical_stockouts": 3,
        "active_incidents": 2,
        "emergency_readiness": 92.0,
        "inventory_risk": "STABLE"
      },
      "geometry": {
        "type": "Polygon",
        "coordinates": [
          [
            [
              75.8,
              32.2
            ],
            [
              76.4,
              33.1
            ],
            [
              77.3,
              33.0
            ],
            [
              78.5,
              32.3
            ],
            [
              79.0,
              31.8
            ],
            [
              78.4,
              31.1
            ],
            [
              77.6,
              30.5
            ],
            [
              76.8,
              30.9
            ],
            [
              76.0,
              31.4
            ],
            [
              75.8,
              32.2
            ]
          ]
        ]
      }
    },
    {
      "type": "Feature",
      "id": "PB",
      "properties": {
        "name": "Punjab",
        "state_code": "PB",
        "type": "State",
        "capital": "Chandigarh",
        "zone": "North",
        "centroid": [
          75.34,
          31.14
        ],
        "healthcare_resilience": 89.2,
        "medicine_availability": 94.5,
        "hospitals": 1120,
        "phcs": 2450,
        "critical_stockouts": 3,
        "active_incidents": 2,
        "emergency_readiness": 91.8,
        "inventory_risk": "STABLE"
      },
      "geometry": {
        "type": "Polygon",
        "coordinates": [
          [
            [
              74.2,
              30.0
            ],
            [
              74.0,
              31.0
            ],
            [
              74.6,
              31.8
            ],
            [
              75.3,
              32.2
            ],
            [
              75.8,
              32.2
            ],
            [
              76.5,
              31.2
            ],
            [
              76.8,
              30.6
            ],
            [
              76.2,
              30.0
            ],
            [
              75.0,
              29.8
            ],
            [
              74.2,
              30.0
            ]
          ]
        ]
      }
    },
    {
      "type": "Feature",
      "id": "CH",
      "properties": {
        "name": "Chandigarh",
        "state_code": "CH",
        "type": "Union Territory",
        "capital": "Chandigarh",
        "zone": "North",
        "centroid": [
          76.77,
          30.73
        ],
        "healthcare_resilience": 97.0,
        "medicine_availability": 99.0,
        "hospitals": 95,
        "phcs": 160,
        "critical_stockouts": 0,
        "active_incidents": 1,
        "emergency_readiness": 98.0,
        "inventory_risk": "STABLE"
      },
      "geometry": {
        "type": "Polygon",
        "coordinates": [
          [
            [
              76.72,
              30.7
            ],
            [
              76.72,
              30.78
            ],
            [
              76.82,
              30.78
            ],
            [
              76.82,
              30.7
            ],
            [
              76.72,
              30.7
            ]
          ]
        ]
      }
    },
    {
      "type": "Feature",
      "id": "UK",
      "properties": {
        "name": "Uttarakhand",
        "state_code": "UK",
        "type": "State",
        "capital": "Dehradun",
        "zone": "North",
        "centroid": [
          79.01,
          30.06
        ],
        "healthcare_resilience": 82.0,
        "medicine_availability": 89.0,
        "hospitals": 720,
        "phcs": 2050,
        "critical_stockouts": 8,
        "active_incidents": 3,
        "emergency_readiness": 85.0,
        "inventory_risk": "STABLE"
      },
      "geometry": {
        "type": "Polygon",
        "coordinates": [
          [
            [
              77.6,
              30.5
            ],
            [
              78.4,
              31.1
            ],
            [
              79.0,
              31.4
            ],
            [
              80.2,
              31.0
            ],
            [
              81.0,
              30.2
            ],
            [
              80.6,
              29.2
            ],
            [
              79.8,
              28.8
            ],
            [
              78.8,
              29.4
            ],
            [
              78.0,
              29.8
            ],
            [
              77.6,
              30.5
            ]
          ]
        ]
      }
    },
    {
      "type": "Feature",
      "id": "HR",
      "properties": {
        "name": "Haryana",
        "state_code": "HR",
        "type": "State",
        "capital": "Chandigarh",
        "zone": "North",
        "centroid": [
          76.08,
          29.05
        ],
        "healthcare_resilience": 87.0,
        "medicine_availability": 93.0,
        "hospitals": 980,
        "phcs": 2100,
        "critical_stockouts": 5,
        "active_incidents": 2,
        "emergency_readiness": 89.5,
        "inventory_risk": "STABLE"
      },
      "geometry": {
        "type": "Polygon",
        "coordinates": [
          [
            [
              74.5,
              29.5
            ],
            [
              75.0,
              29.8
            ],
            [
              76.2,
              30.0
            ],
            [
              76.8,
              30.6
            ],
            [
              77.4,
              30.4
            ],
            [
              77.3,
              29.0
            ],
            [
              77.4,
              28.2
            ],
            [
              76.8,
              27.8
            ],
            [
              75.8,
              28.2
            ],
            [
              75.0,
              28.8
            ],
            [
              74.5,
              29.5
            ]
          ]
        ]
      }
    },
    {
      "type": "Feature",
      "id": "DL",
      "properties": {
        "name": "Delhi",
        "state_code": "DL",
        "type": "Union Territory",
        "capital": "New Delhi",
        "zone": "North",
        "centroid": [
          77.2,
          28.61
        ],
        "healthcare_resilience": 96.5,
        "medicine_availability": 98.2,
        "hospitals": 840,
        "phcs": 1250,
        "critical_stockouts": 1,
        "active_incidents": 3,
        "emergency_readiness": 97.4,
        "inventory_risk": "STABLE"
      },
      "geometry": {
        "type": "Polygon",
        "coordinates": [
          [
            [
              76.95,
              28.5
            ],
            [
              77.0,
              28.75
            ],
            [
              77.25,
              28.85
            ],
            [
              77.35,
              28.65
            ],
            [
              77.25,
              28.45
            ],
            [
              76.95,
              28.5
            ]
          ]
        ]
      }
    },
    {
      "type": "Feature",
      "id": "RJ",
      "properties": {
        "name": "Rajasthan",
        "state_code": "RJ",
        "type": "State",
        "capital": "Jaipur",
        "zone": "West",
        "centroid": [
          73.5,
          26.5
        ],
        "healthcare_resilience": 78.4,
        "medicine_availability": 86.5,
        "hospitals": 1640,
        "phcs": 4900,
        "critical_stockouts": 12,
        "active_incidents": 4,
        "emergency_readiness": 81.0,
        "inventory_risk": "WATCH"
      },
      "geometry": {
        "type": "Polygon",
        "coordinates": [
          [
            [
              70.0,
              27.0
            ],
            [
              70.5,
              28.0
            ],
            [
              71.8,
              29.2
            ],
            [
              73.8,
              30.0
            ],
            [
              74.5,
              29.5
            ],
            [
              75.8,
              28.2
            ],
            [
              77.0,
              27.8
            ],
            [
              77.8,
              27.2
            ],
            [
              77.2,
              26.0
            ],
            [
              76.5,
              24.5
            ],
            [
              75.0,
              24.2
            ],
            [
              73.8,
              23.8
            ],
            [
              72.5,
              24.2
            ],
            [
              71.0,
              25.0
            ],
            [
              70.0,
              26.0
            ],
            [
              70.0,
              27.0
            ]
          ]
        ]
      }
    },
    {
      "type": "Feature",
      "id": "UP",
      "properties": {
        "name": "Uttar Pradesh",
        "state_code": "UP",
        "type": "State",
        "capital": "Lucknow",
        "zone": "North",
        "centroid": [
          80.94,
          26.84
        ],
        "healthcare_resilience": 72.8,
        "medicine_availability": 82.0,
        "hospitals": 3450,
        "phcs": 9820,
        "critical_stockouts": 18,
        "active_incidents": 7,
        "emergency_readiness": 75.4,
        "inventory_risk": "WATCH"
      },
      "geometry": {
        "type": "Polygon",
        "coordinates": [
          [
            [
              77.4,
              29.0
            ],
            [
              78.8,
              29.4
            ],
            [
              79.8,
              28.8
            ],
            [
              80.5,
              28.5
            ],
            [
              81.5,
              28.2
            ],
            [
              83.0,
              27.5
            ],
            [
              84.2,
              27.2
            ],
            [
              84.5,
              25.8
            ],
            [
              83.5,
              24.8
            ],
            [
              82.5,
              24.0
            ],
            [
              81.0,
              24.8
            ],
            [
              79.5,
              25.2
            ],
            [
              78.4,
              25.0
            ],
            [
              78.0,
              26.0
            ],
            [
              77.4,
              28.2
            ],
            [
              77.4,
              29.0
            ]
          ]
        ]
      }
    },
    {
      "type": "Feature",
      "id": "BR",
      "properties": {
        "name": "Bihar",
        "state_code": "BR",
        "type": "State",
        "capital": "Patna",
        "zone": "East",
        "centroid": [
          85.31,
          25.6
        ],
        "healthcare_resilience": 64.5,
        "medicine_availability": 75.8,
        "hospitals": 1620,
        "phcs": 6200,
        "critical_stockouts": 24,
        "active_incidents": 8,
        "emergency_readiness": 68.2,
        "inventory_risk": "WATCH"
      },
      "geometry": {
        "type": "Polygon",
        "coordinates": [
          [
            [
              84.2,
              27.2
            ],
            [
              85.5,
              27.0
            ],
            [
              87.0,
              26.8
            ],
            [
              88.1,
              26.2
            ],
            [
              87.8,
              25.2
            ],
            [
              87.0,
              24.6
            ],
            [
              85.8,
              24.5
            ],
            [
              84.2,
              24.6
            ],
            [
              83.5,
              24.8
            ],
            [
              84.5,
              25.8
            ],
            [
              84.2,
              27.2
            ]
          ]
        ]
      }
    },
    {
      "type": "Feature",
      "id": "GJ",
      "properties": {
        "name": "Gujarat",
        "state_code": "GJ",
        "type": "State",
        "capital": "Gandhinagar",
        "zone": "West",
        "centroid": [
          71.19,
          22.25
        ],
        "healthcare_resilience": 87.6,
        "medicine_availability": 93.8,
        "hospitals": 1820,
        "phcs": 4120,
        "critical_stockouts": 4,
        "active_incidents": 3,
        "emergency_readiness": 91.2,
        "inventory_risk": "STABLE"
      },
      "geometry": {
        "type": "Polygon",
        "coordinates": [
          [
            [
              68.5,
              23.5
            ],
            [
              69.0,
              24.2
            ],
            [
              71.0,
              24.5
            ],
            [
              72.5,
              24.2
            ],
            [
              73.5,
              23.0
            ],
            [
              73.8,
              21.5
            ],
            [
              73.0,
              20.8
            ],
            [
              72.8,
              21.2
            ],
            [
              72.2,
              22.2
            ],
            [
              71.0,
              21.0
            ],
            [
              69.5,
              21.8
            ],
            [
              69.0,
              22.8
            ],
            [
              69.8,
              23.2
            ],
            [
              68.5,
              23.5
            ]
          ]
        ]
      }
    },
    {
      "type": "Feature",
      "id": "MP",
      "properties": {
        "name": "Madhya Pradesh",
        "state_code": "MP",
        "type": "State",
        "capital": "Bhopal",
        "zone": "Central",
        "centroid": [
          77.94,
          23.47
        ],
        "healthcare_resilience": 74.2,
        "medicine_availability": 83.5,
        "hospitals": 1850,
        "phcs": 5600,
        "critical_stockouts": 15,
        "active_incidents": 5,
        "emergency_readiness": 77.0,
        "inventory_risk": "WATCH"
      },
      "geometry": {
        "type": "Polygon",
        "coordinates": [
          [
            [
              74.5,
              24.5
            ],
            [
              76.5,
              24.5
            ],
            [
              78.0,
              26.0
            ],
            [
              79.5,
              25.2
            ],
            [
              81.0,
              24.8
            ],
            [
              82.5,
              24.0
            ],
            [
              82.2,
              22.8
            ],
            [
              81.2,
              22.0
            ],
            [
              79.5,
              21.5
            ],
            [
              77.5,
              21.5
            ],
            [
              75.0,
              21.8
            ],
            [
              74.2,
              22.8
            ],
            [
              74.5,
              24.5
            ]
          ]
        ]
      }
    },
    {
      "type": "Feature",
      "id": "WB",
      "properties": {
        "name": "West Bengal",
        "state_code": "WB",
        "type": "State",
        "capital": "Kolkata",
        "zone": "East",
        "centroid": [
          87.85,
          22.98
        ],
        "healthcare_resilience": 79.5,
        "medicine_availability": 87.0,
        "hospitals": 2100,
        "phcs": 5100,
        "critical_stockouts": 11,
        "active_incidents": 4,
        "emergency_readiness": 83.0,
        "inventory_risk": "WATCH"
      },
      "geometry": {
        "type": "Polygon",
        "coordinates": [
          [
            [
              88.1,
              26.2
            ],
            [
              88.8,
              27.0
            ],
            [
              89.8,
              26.8
            ],
            [
              89.5,
              25.8
            ],
            [
              88.2,
              24.8
            ],
            [
              88.8,
              23.5
            ],
            [
              89.0,
              22.0
            ],
            [
              88.2,
              21.5
            ],
            [
              87.5,
              22.0
            ],
            [
              86.8,
              22.8
            ],
            [
              87.0,
              24.6
            ],
            [
              87.8,
              25.2
            ],
            [
              88.1,
              26.2
            ]
          ]
        ]
      }
    },
    {
      "type": "Feature",
      "id": "JH",
      "properties": {
        "name": "Jharkhand",
        "state_code": "JH",
        "type": "State",
        "capital": "Ranchi",
        "zone": "East",
        "centroid": [
          85.27,
          23.61
        ],
        "healthcare_resilience": 68.0,
        "medicine_availability": 78.5,
        "hospitals": 920,
        "phcs": 2850,
        "critical_stockouts": 19,
        "active_incidents": 5,
        "emergency_readiness": 72.0,
        "inventory_risk": "WATCH"
      },
      "geometry": {
        "type": "Polygon",
        "coordinates": [
          [
            [
              83.5,
              24.8
            ],
            [
              84.2,
              24.6
            ],
            [
              85.8,
              24.5
            ],
            [
              87.0,
              24.6
            ],
            [
              86.8,
              22.8
            ],
            [
              85.8,
              22.2
            ],
            [
              84.8,
              22.4
            ],
            [
              83.8,
              23.2
            ],
            [
              83.5,
              24.8
            ]
          ]
        ]
      }
    },
    {
      "type": "Feature",
      "id": "OD",
      "properties": {
        "name": "Odisha",
        "state_code": "OD",
        "type": "State",
        "capital": "Bhubaneswar",
        "zone": "East",
        "centroid": [
          85.09,
          20.95
        ],
        "healthcare_resilience": 56.4,
        "medicine_availability": 69.2,
        "hospitals": 1180,
        "phcs": 3400,
        "critical_stockouts": 28,
        "active_incidents": 9,
        "emergency_readiness": 58.0,
        "inventory_risk": "HIGH RISK"
      },
      "geometry": {
        "type": "Polygon",
        "coordinates": [
          [
            [
              83.8,
              22.5
            ],
            [
              85.0,
              22.5
            ],
            [
              86.8,
              22.8
            ],
            [
              87.2,
              21.5
            ],
            [
              86.5,
              20.5
            ],
            [
              85.2,
              19.5
            ],
            [
              84.8,
              19.0
            ],
            [
              83.8,
              18.8
            ],
            [
              82.5,
              18.5
            ],
            [
              82.8,
              20.0
            ],
            [
              83.5,
              21.5
            ],
            [
              83.8,
              22.5
            ]
          ]
        ]
      }
    },
    {
      "type": "Feature",
      "id": "CG",
      "properties": {
        "name": "Chhattisgarh",
        "state_code": "CG",
        "type": "State",
        "capital": "Raipur",
        "zone": "Central",
        "centroid": [
          81.86,
          21.27
        ],
        "healthcare_resilience": 76.5,
        "medicine_availability": 85.0,
        "hospitals": 980,
        "phcs": 3100,
        "critical_stockouts": 14,
        "active_incidents": 3,
        "emergency_readiness": 79.0,
        "inventory_risk": "WATCH"
      },
      "geometry": {
        "type": "Polygon",
        "coordinates": [
          [
            [
              82.5,
              24.0
            ],
            [
              83.5,
              24.0
            ],
            [
              83.8,
              23.2
            ],
            [
              83.8,
              22.5
            ],
            [
              83.5,
              21.5
            ],
            [
              82.8,
              20.0
            ],
            [
              81.5,
              18.2
            ],
            [
              81.0,
              18.0
            ],
            [
              80.5,
              19.5
            ],
            [
              80.8,
              21.5
            ],
            [
              81.2,
              22.0
            ],
            [
              82.2,
              22.8
            ],
            [
              82.5,
              24.0
            ]
          ]
        ]
      }
    },
    {
      "type": "Feature",
      "id": "MH",
      "properties": {
        "name": "Maharashtra",
        "state_code": "MH",
        "type": "State",
        "capital": "Mumbai",
        "zone": "West",
        "centroid": [
          75.71,
          19.75
        ],
        "healthcare_resilience": 88.2,
        "medicine_availability": 94.0,
        "hospitals": 2840,
        "phcs": 6120,
        "critical_stockouts": 5,
        "active_incidents": 5,
        "emergency_readiness": 92.5,
        "inventory_risk": "STABLE"
      },
      "geometry": {
        "type": "Polygon",
        "coordinates": [
          [
            [
              72.8,
              19.0
            ],
            [
              72.8,
              20.2
            ],
            [
              73.8,
              21.5
            ],
            [
              75.0,
              21.8
            ],
            [
              77.5,
              21.5
            ],
            [
              79.5,
              21.5
            ],
            [
              80.8,
              21.5
            ],
            [
              80.5,
              19.5
            ],
            [
              79.2,
              19.0
            ],
            [
              78.2,
              18.5
            ],
            [
              76.0,
              17.5
            ],
            [
              74.5,
              16.5
            ],
            [
              73.5,
              16.0
            ],
            [
              73.0,
              18.0
            ],
            [
              72.8,
              19.0
            ]
          ]
        ]
      }
    },
    {
      "type": "Feature",
      "id": "GA",
      "properties": {
        "name": "Goa",
        "state_code": "GA",
        "type": "State",
        "capital": "Panaji",
        "zone": "West",
        "centroid": [
          74.12,
          15.29
        ],
        "healthcare_resilience": 95.0,
        "medicine_availability": 98.0,
        "hospitals": 140,
        "phcs": 280,
        "critical_stockouts": 1,
        "active_incidents": 1,
        "emergency_readiness": 96.0,
        "inventory_risk": "STABLE"
      },
      "geometry": {
        "type": "Polygon",
        "coordinates": [
          [
            [
              73.7,
              15.1
            ],
            [
              73.8,
              15.7
            ],
            [
              74.3,
              15.7
            ],
            [
              74.3,
              15.0
            ],
            [
              73.7,
              15.1
            ]
          ]
        ]
      }
    },
    {
      "type": "Feature",
      "id": "TS",
      "properties": {
        "name": "Telangana",
        "state_code": "TS",
        "type": "State",
        "capital": "Hyderabad",
        "zone": "South",
        "centroid": [
          79.01,
          17.84
        ],
        "healthcare_resilience": 86.5,
        "medicine_availability": 93.4,
        "hospitals": 1150,
        "phcs": 2940,
        "critical_stockouts": 4,
        "active_incidents": 2,
        "emergency_readiness": 90.2,
        "inventory_risk": "STABLE"
      },
      "geometry": {
        "type": "Polygon",
        "coordinates": [
          [
            [
              77.5,
              18.5
            ],
            [
              78.2,
              19.5
            ],
            [
              79.2,
              19.0
            ],
            [
              80.2,
              18.5
            ],
            [
              80.8,
              17.8
            ],
            [
              80.5,
              16.8
            ],
            [
              79.5,
              16.5
            ],
            [
              78.2,
              16.2
            ],
            [
              77.5,
              17.2
            ],
            [
              77.5,
              18.5
            ]
          ]
        ]
      }
    },
    {
      "type": "Feature",
      "id": "AP",
      "properties": {
        "name": "Andhra Pradesh",
        "state_code": "AP",
        "type": "State",
        "capital": "Amaravati",
        "zone": "South",
        "centroid": [
          80.64,
          16.5
        ],
        "healthcare_resilience": 82.4,
        "medicine_availability": 91.2,
        "hospitals": 1248,
        "phcs": 3820,
        "critical_stockouts": 7,
        "active_incidents": 4,
        "emergency_readiness": 88.1,
        "inventory_risk": "WATCH"
      },
      "geometry": {
        "type": "Polygon",
        "coordinates": [
          [
            [
              80.8,
              18.8
            ],
            [
              82.5,
              18.5
            ],
            [
              83.8,
              18.8
            ],
            [
              84.8,
              19.0
            ],
            [
              83.5,
              17.5
            ],
            [
              82.0,
              16.5
            ],
            [
              81.2,
              16.0
            ],
            [
              80.5,
              15.5
            ],
            [
              80.2,
              14.0
            ],
            [
              79.8,
              13.5
            ],
            [
              78.5,
              13.2
            ],
            [
              77.5,
              14.0
            ],
            [
              77.5,
              15.2
            ],
            [
              78.2,
              16.2
            ],
            [
              79.5,
              16.5
            ],
            [
              80.5,
              16.8
            ],
            [
              80.8,
              17.8
            ],
            [
              80.8,
              18.8
            ]
          ]
        ]
      }
    },
    {
      "type": "Feature",
      "id": "KA",
      "properties": {
        "name": "Karnataka",
        "state_code": "KA",
        "type": "State",
        "capital": "Bengaluru",
        "zone": "South",
        "centroid": [
          75.71,
          15.31
        ],
        "healthcare_resilience": 85.0,
        "medicine_availability": 92.1,
        "hospitals": 1920,
        "phcs": 4450,
        "critical_stockouts": 6,
        "active_incidents": 3,
        "emergency_readiness": 89.0,
        "inventory_risk": "STABLE"
      },
      "geometry": {
        "type": "Polygon",
        "coordinates": [
          [
            [
              74.5,
              16.5
            ],
            [
              76.0,
              17.5
            ],
            [
              77.5,
              18.0
            ],
            [
              77.5,
              17.2
            ],
            [
              77.5,
              15.2
            ],
            [
              77.5,
              14.0
            ],
            [
              78.2,
              13.0
            ],
            [
              77.5,
              12.0
            ],
            [
              76.5,
              11.8
            ],
            [
              75.5,
              12.2
            ],
            [
              74.5,
              13.5
            ],
            [
              74.3,
              14.8
            ],
            [
              74.5,
              16.5
            ]
          ]
        ]
      }
    },
    {
      "type": "Feature",
      "id": "KL",
      "properties": {
        "name": "Kerala",
        "state_code": "KL",
        "type": "State",
        "capital": "Thiruvananthapuram",
        "zone": "South",
        "centroid": [
          76.27,
          10.85
        ],
        "healthcare_resilience": 94.8,
        "medicine_availability": 97.8,
        "hospitals": 1380,
        "phcs": 2980,
        "critical_stockouts": 1,
        "active_incidents": 1,
        "emergency_readiness": 96.5,
        "inventory_risk": "STABLE"
      },
      "geometry": {
        "type": "Polygon",
        "coordinates": [
          [
            [
              75.0,
              12.5
            ],
            [
              75.5,
              12.2
            ],
            [
              76.5,
              11.8
            ],
            [
              76.8,
              10.5
            ],
            [
              77.2,
              9.5
            ],
            [
              77.4,
              8.5
            ],
            [
              76.8,
              8.5
            ],
            [
              76.2,
              9.5
            ],
            [
              75.8,
              10.8
            ],
            [
              75.0,
              12.5
            ]
          ]
        ]
      }
    },
    {
      "type": "Feature",
      "id": "TN",
      "properties": {
        "name": "Tamil Nadu",
        "state_code": "TN",
        "type": "State",
        "capital": "Chennai",
        "zone": "South",
        "centroid": [
          78.65,
          11.12
        ],
        "healthcare_resilience": 91.4,
        "medicine_availability": 96.5,
        "hospitals": 2450,
        "phcs": 5200,
        "critical_stockouts": 2,
        "active_incidents": 2,
        "emergency_readiness": 95.0,
        "inventory_risk": "STABLE"
      },
      "geometry": {
        "type": "Polygon",
        "coordinates": [
          [
            [
              78.5,
              13.2
            ],
            [
              80.2,
              13.4
            ],
            [
              80.0,
              12.0
            ],
            [
              79.8,
              10.5
            ],
            [
              79.2,
              9.5
            ],
            [
              77.8,
              8.1
            ],
            [
              77.4,
              8.5
            ],
            [
              77.2,
              9.5
            ],
            [
              76.8,
              10.5
            ],
            [
              77.5,
              12.0
            ],
            [
              78.2,
              13.0
            ],
            [
              78.5,
              13.2
            ]
          ]
        ]
      }
    },
    {
      "type": "Feature",
      "id": "PY",
      "properties": {
        "name": "Puducherry",
        "state_code": "PY",
        "type": "Union Territory",
        "capital": "Puducherry",
        "zone": "South",
        "centroid": [
          79.8,
          11.94
        ],
        "healthcare_resilience": 93.5,
        "medicine_availability": 96.0,
        "hospitals": 115,
        "phcs": 210,
        "critical_stockouts": 2,
        "active_incidents": 1,
        "emergency_readiness": 94.5,
        "inventory_risk": "STABLE"
      },
      "geometry": {
        "type": "Polygon",
        "coordinates": [
          [
            [
              79.76,
              11.88
            ],
            [
              79.76,
              11.98
            ],
            [
              79.85,
              11.98
            ],
            [
              79.85,
              11.88
            ],
            [
              79.76,
              11.88
            ]
          ]
        ]
      }
    },
    {
      "type": "Feature",
      "id": "DNHDD",
      "properties": {
        "name": "Dadra and Nagar Haveli and Daman and Diu",
        "state_code": "DNHDD",
        "type": "Union Territory",
        "capital": "Daman",
        "zone": "West",
        "centroid": [
          72.95,
          20.35
        ],
        "healthcare_resilience": 86.0,
        "medicine_availability": 92.0,
        "hospitals": 80,
        "phcs": 190,
        "critical_stockouts": 3,
        "active_incidents": 1,
        "emergency_readiness": 88.0,
        "inventory_risk": "STABLE"
      },
      "geometry": {
        "type": "Polygon",
        "coordinates": [
          [
            [
              72.8,
              20.3
            ],
            [
              72.8,
              20.5
            ],
            [
              73.1,
              20.5
            ],
            [
              73.1,
              20.3
            ],
            [
              72.8,
              20.3
            ]
          ]
        ]
      }
    },
    {
      "type": "Feature",
      "id": "LD",
      "properties": {
        "name": "Lakshadweep",
        "state_code": "LD",
        "type": "Union Territory",
        "capital": "Kavaratti",
        "zone": "South",
        "centroid": [
          72.63,
          10.56
        ],
        "healthcare_resilience": 88.5,
        "medicine_availability": 93.0,
        "hospitals": 45,
        "phcs": 90,
        "critical_stockouts": 2,
        "active_incidents": 1,
        "emergency_readiness": 89.0,
        "inventory_risk": "STABLE"
      },
      "geometry": {
        "type": "Polygon",
        "coordinates": [
          [
            [
              72.5,
              10.4
            ],
            [
              72.5,
              10.7
            ],
            [
              72.8,
              10.7
            ],
            [
              72.8,
              10.4
            ],
            [
              72.5,
              10.4
            ]
          ]
        ]
      }
    },
    {
      "type": "Feature",
      "id": "SK",
      "properties": {
        "name": "Sikkim",
        "state_code": "SK",
        "type": "State",
        "capital": "Gangtok",
        "zone": "Northeast",
        "centroid": [
          88.51,
          27.53
        ],
        "healthcare_resilience": 88.0,
        "medicine_availability": 94.0,
        "hospitals": 110,
        "phcs": 290,
        "critical_stockouts": 2,
        "active_incidents": 1,
        "emergency_readiness": 90.0,
        "inventory_risk": "STABLE"
      },
      "geometry": {
        "type": "Polygon",
        "coordinates": [
          [
            [
              88.0,
              27.2
            ],
            [
              88.1,
              27.8
            ],
            [
              88.6,
              28.1
            ],
            [
              88.9,
              27.8
            ],
            [
              88.8,
              27.1
            ],
            [
              88.0,
              27.2
            ]
          ]
        ]
      }
    },
    {
      "type": "Feature",
      "id": "AS",
      "properties": {
        "name": "Assam",
        "state_code": "AS",
        "type": "State",
        "capital": "Dispur",
        "zone": "Northeast",
        "centroid": [
          92.93,
          26.2
        ],
        "healthcare_resilience": 71.0,
        "medicine_availability": 80.5,
        "hospitals": 1050,
        "phcs": 3120,
        "critical_stockouts": 21,
        "active_incidents": 6,
        "emergency_readiness": 74.0,
        "inventory_risk": "WATCH"
      },
      "geometry": {
        "type": "Polygon",
        "coordinates": [
          [
            [
              89.8,
              26.2
            ],
            [
              90.5,
              26.5
            ],
            [
              91.8,
              26.8
            ],
            [
              93.5,
              27.2
            ],
            [
              95.0,
              27.8
            ],
            [
              95.5,
              27.2
            ],
            [
              94.5,
              26.5
            ],
            [
              93.5,
              25.8
            ],
            [
              92.5,
              25.2
            ],
            [
              91.0,
              25.8
            ],
            [
              90.2,
              25.5
            ],
            [
              89.8,
              26.2
            ]
          ]
        ]
      }
    },
    {
      "type": "Feature",
      "id": "AR",
      "properties": {
        "name": "Arunachal Pradesh",
        "state_code": "AR",
        "type": "State",
        "capital": "Itanagar",
        "zone": "Northeast",
        "centroid": [
          94.72,
          28.21
        ],
        "healthcare_resilience": 75.0,
        "medicine_availability": 82.0,
        "hospitals": 280,
        "phcs": 740,
        "critical_stockouts": 9,
        "active_incidents": 2,
        "emergency_readiness": 78.0,
        "inventory_risk": "WATCH"
      },
      "geometry": {
        "type": "Polygon",
        "coordinates": [
          [
            [
              91.8,
              27.0
            ],
            [
              92.5,
              27.8
            ],
            [
              93.5,
              28.5
            ],
            [
              95.0,
              29.0
            ],
            [
              96.5,
              28.5
            ],
            [
              97.2,
              27.8
            ],
            [
              96.0,
              27.2
            ],
            [
              95.0,
              27.8
            ],
            [
              93.5,
              27.2
            ],
            [
              91.8,
              27.0
            ]
          ]
        ]
      }
    },
    {
      "type": "Feature",
      "id": "NL",
      "properties": {
        "name": "Nagaland",
        "state_code": "NL",
        "type": "State",
        "capital": "Kohima",
        "zone": "Northeast",
        "centroid": [
          94.56,
          26.15
        ],
        "healthcare_resilience": 73.5,
        "medicine_availability": 81.0,
        "hospitals": 220,
        "phcs": 620,
        "critical_stockouts": 10,
        "active_incidents": 2,
        "emergency_readiness": 76.0,
        "inventory_risk": "WATCH"
      },
      "geometry": {
        "type": "Polygon",
        "coordinates": [
          [
            [
              93.8,
              25.5
            ],
            [
              94.2,
              26.2
            ],
            [
              95.0,
              26.8
            ],
            [
              95.4,
              26.2
            ],
            [
              94.5,
              25.4
            ],
            [
              93.8,
              25.5
            ]
          ]
        ]
      }
    },
    {
      "type": "Feature",
      "id": "MN",
      "properties": {
        "name": "Manipur",
        "state_code": "MN",
        "type": "State",
        "capital": "Imphal",
        "zone": "Northeast",
        "centroid": [
          93.9,
          24.66
        ],
        "healthcare_resilience": 70.0,
        "medicine_availability": 78.0,
        "hospitals": 240,
        "phcs": 680,
        "critical_stockouts": 13,
        "active_incidents": 3,
        "emergency_readiness": 73.0,
        "inventory_risk": "WATCH"
      },
      "geometry": {
        "type": "Polygon",
        "coordinates": [
          [
            [
              93.2,
              24.2
            ],
            [
              93.5,
              25.4
            ],
            [
              94.4,
              25.4
            ],
            [
              94.5,
              24.2
            ],
            [
              93.8,
              23.8
            ],
            [
              93.2,
              24.2
            ]
          ]
        ]
      }
    },
    {
      "type": "Feature",
      "id": "MZ",
      "properties": {
        "name": "Mizoram",
        "state_code": "MZ",
        "type": "State",
        "capital": "Aizawl",
        "zone": "Northeast",
        "centroid": [
          92.93,
          23.16
        ],
        "healthcare_resilience": 82.5,
        "medicine_availability": 89.5,
        "hospitals": 180,
        "phcs": 490,
        "critical_stockouts": 5,
        "active_incidents": 1,
        "emergency_readiness": 85.0,
        "inventory_risk": "STABLE"
      },
      "geometry": {
        "type": "Polygon",
        "coordinates": [
          [
            [
              92.4,
              22.0
            ],
            [
              92.4,
              23.5
            ],
            [
              93.0,
              24.2
            ],
            [
              93.4,
              23.5
            ],
            [
              93.2,
              22.2
            ],
            [
              92.4,
              22.0
            ]
          ]
        ]
      }
    },
    {
      "type": "Feature",
      "id": "TR",
      "properties": {
        "name": "Tripura",
        "state_code": "TR",
        "type": "State",
        "capital": "Agartala",
        "zone": "Northeast",
        "centroid": [
          91.98,
          23.94
        ],
        "healthcare_resilience": 79.0,
        "medicine_availability": 86.0,
        "hospitals": 260,
        "phcs": 710,
        "critical_stockouts": 7,
        "active_incidents": 2,
        "emergency_readiness": 81.0,
        "inventory_risk": "WATCH"
      },
      "geometry": {
        "type": "Polygon",
        "coordinates": [
          [
            [
              91.2,
              23.0
            ],
            [
              91.2,
              24.2
            ],
            [
              92.2,
              24.4
            ],
            [
              92.4,
              23.5
            ],
            [
              91.8,
              23.0
            ],
            [
              91.2,
              23.0
            ]
          ]
        ]
      }
    },
    {
      "type": "Feature",
      "id": "ML",
      "properties": {
        "name": "Meghalaya",
        "state_code": "ML",
        "type": "State",
        "capital": "Shillong",
        "zone": "Northeast",
        "centroid": [
          91.36,
          25.46
        ],
        "healthcare_resilience": 74.0,
        "medicine_availability": 82.5,
        "hospitals": 290,
        "phcs": 780,
        "critical_stockouts": 9,
        "active_incidents": 2,
        "emergency_readiness": 77.0,
        "inventory_risk": "WATCH"
      },
      "geometry": {
        "type": "Polygon",
        "coordinates": [
          [
            [
              90.2,
              25.2
            ],
            [
              90.2,
              25.8
            ],
            [
              92.2,
              25.8
            ],
            [
              92.5,
              25.2
            ],
            [
              91.2,
              25.0
            ],
            [
              90.2,
              25.2
            ]
          ]
        ]
      }
    },
    {
      "type": "Feature",
      "id": "AN",
      "properties": {
        "name": "Andaman and Nicobar Islands",
        "state_code": "AN",
        "type": "Union Territory",
        "capital": "Port Blair",
        "zone": "South",
        "centroid": [
          92.87,
          11.74
        ],
        "healthcare_resilience": 84.0,
        "medicine_availability": 90.0,
        "hospitals": 110,
        "phcs": 240,
        "critical_stockouts": 5,
        "active_incidents": 2,
        "emergency_readiness": 86.0,
        "inventory_risk": "STABLE"
      },
      "geometry": {
        "type": "Polygon",
        "coordinates": [
          [
            [
              92.5,
              11.2
            ],
            [
              92.5,
              13.5
            ],
            [
              93.2,
              13.5
            ],
            [
              93.2,
              11.2
            ],
            [
              92.5,
              11.2
            ]
          ]
        ]
      }
    }
  ]
}